KUIPER-00213            
1 67777U 26030P   26061.75998330  .00016486  00000+0  52735-3 0  9993
2 67777  51.8797 252.8640 0014836  44.0234 316.1930 15.32454154  4022
KUIPER-00214            
1 67778U 26030Q   26061.78612470  .00025808  00000+0  72278-3 0  9997
2 67778  51.8838 252.3062 0001192 191.3108 168.7852 15.36455754  4035
KUIPER-00215            
1 67779U 26030R   26061.74771117  .00030811  00000+0  92529-3 0  9999
2 67779  51.8826 252.7940 0009919  40.4095 319.7626 15.34123658  4025
KUIPER-00218            
1 67780U 26030S   26061.80450049  .00034372  00000+0  10081-2 0  9994
2 67780  51.8825 252.4241 0006187  33.3408 326.7967 15.34844934  4034
KUIPER-00220            
1 67781U 26030T   26061.74476139  .00023610  00000+0  70620-3 0  9995
2 67781  51.8796 252.7670 0008062  37.3899 322.7646 15.34413799  4023
KUIPER-00222            
1 67782U 26030U   26061.76331028  .00011070  00000+0  35887-3 0  9998
2 67782  51.8799 252.8852 0017798  41.2483 318.9843 15.32355550  4023
KUIPER-00223            
1 67783U 26030V   26061.75065740  .00022811  00000+0  69280-3 0  9992
2 67783  51.8811 252.8090 0012160  40.7641 319.4252 15.33912683  4028
KUIPER-00225            
1 67784U 26030W   26061.79677530  .00036103  00000+0  10344-2 0  9998
2 67784  51.8805 252.3697 0003905  20.9138 339.2007 15.35564116  4033
KUIPER-00226            
1 67785U 26030X   26061.77279010 -.00014816  00000+0 -46768-3 0  9997
2 67785  51.8811 252.9450 0019528  53.0866 307.1903 15.31372531  4029
KUIPER-00259            
1 67786U 26030Y   26061.74124820  .00023988  00000+0  71006-3 0  9994
2 67786  51.8796 252.7442 0007983  30.5588 329.5861 15.34734735  4026
KUIPER-00260            
1 67787U 26030Z   26061.79006332  .00026827  00000+0  75901-3 0  9990
2 67787  51.8792 252.3247 0000816  78.5553 281.5524 15.36115190  3947
KUIPER-00262            
1 67788U 26030AA  26061.78707810  .00028055  00000+0  78526-3 0  9990
2 67788  51.8806 252.3079 0000820 151.6510 208.4521 15.36427077  4034
KUIPER-00266            
1 67789U 26030AB  26061.77676609  .00020981  00000+0  69564-3 0  9993
2 67789  51.8812 252.9693 0022661  52.2864 308.0170 15.30987399  4023
KUIPER-00268            
1 67790U 26030AC  26061.79443286  .00032044  00000+0  91692-3 0  9990
2 67790  51.8837 252.3610 0002173  31.4192 328.6924 15.35667063  4038
KUIPER-00270            
1 67791U 26030AD  26061.74592256  .00022882  00000+0  68666-3 0  9992
2 67791  51.8794 252.7739 0009948  37.1014 323.0657 15.34314518  4024
KUIPER-00274            
1 67792U 26030AE  26061.76699212  .00004993  00000+0  17214-3 0  9991
2 67792  51.8822 252.9141 0017229  49.3654 310.8826 15.31676115  4025
KUIPER-00275            
1 67793U 26030AF  26061.74343587  .00023167  00000+0  69365-3 0  9999
2 67793  51.8827 252.7660 0008706  34.4058 325.7490 15.34388755  4023
